{"type": "FeatureCollection", "features": [ {"type": "Feature", "properties": {"norad_id": 30320, "name": "FENGYUN 1C DEB", "group": "fengyun-1c-debris", "lat": 62.074646776499456, "lon": 24.086129260481755, "alt_km": 920.8789695175437, "timestamp": "2025-12-08T13:49:32.068201+00:00", "meta": {"OBJECT_NAME": "FENGYUN 1C DEB", "OBJECT_ID": "1999-025AAH", "EPOCH": "2025-12-08T03:28:26.760288", "MEAN_MOTION": 13.98552807, "ECCENTRICITY": 0.00852967, "INCLINATION": 99.1885, "RA_OF_ASC_NODE": 41.4347, "ARG_OF_PERICENTER": 307.3263, "MEAN_ANOMALY": 104.9857, "EPHEMERIS_TYPE": 0, "CLASSIFICATION_TYPE": "U", "NORAD_CAT_ID": 30320, "ELEMENT_SET_NO": 999, "REV_AT_EPOCH": 96343, "BSTAR": 0.00013743149, "MEAN_MOTION_DOT": 1.57e-06, "MEAN_MOTION_DDOT": 0}, "tle": {"line1": "1 30320U 99025AAH 25342.14475417  .00000157  00000+0  13743-3 0  9995", "line2": "2 30320  99.1885  41.4347 0085296 307.3263 104.9857 13.98552807963434"}}, "geometry": {"type": "Point", "coordinates": [24.086129260481755, 62.074646776499456]}}, {"type": "Feature", "properties": {"norad_id": 30321, "name": "FENGYUN 1C DEB", "group": "fengyun-1c-debris", "lat": -24.090677007025544, "lon": 157.82014037039548, "alt_km": 811.368536875767, "timestamp": "2025-12-08T13:49:32.068212+00:00", "meta": {"OBJECT_NAME": "FENGYUN 1C DEB", "OBJECT_ID": "1999-025AAJ", "EPOCH": "2025-12-08T06:07:52.383360", "MEAN_MOTION": 14.1663245, "ECCENTRICITY": 0.00598525, "INCLINATION": 98.6559, "RA_OF_ASC_NODE": 341.4138, "ARG_OF_PERICENTER": 249.8485, "MEAN_ANOMALY": 120.8149, "EPHEMERIS_TYPE": 0, "CLASSIFICATION_TYPE": "U", "NORAD_CAT_ID": 30321, "ELEMENT_SET_NO": 999, "REV_AT_EPOCH": 97480, "BSTAR": 0.00057687824, "MEAN_MOTION_DOT": 1.128e-05, "MEAN_MOTION_DDOT": 0}, "tle": {"line1": "1 30321U 99025AAJ 25342.25546740  .00001128  00000+0  57688-3 0  9991", "line2": "2 30321  98.6559 341.4138 0059852 249.8485 120.8149 14.16632450974801"}}, "geometry": {"type": "Point", "coordinates": [157.82014037039548, -24.090677007025544]}}, {"type": "Feature", "properties": {"norad_id": 30322, "name": "FENGYUN 1C DEB", "group": "fengyun-1c-debris", "lat": 15.328025848231883, "lon": -161.75691945902415, "alt_km": 904.844901574289, "timestamp": "2025-12-08T13:49:32.068222+00:00", "meta": {"OBJECT_NAME": "FENGYUN 1C DEB", "OBJECT_ID": "1999-025AAK", "EPOCH": "2025-12-08T01:47:48.279840", "MEAN_MOTION": 14.06065197, "ECCENTRICITY": 0.0126909, "INCLINATION": 98.3974, "RA_OF_ASC_NODE": 200.0985, "ARG_OF_PERICENTER": 266.4851, "MEAN_ANOMALY": 92.1797, "EPHEMERIS_TYPE": 0, "CLASSIFICATION_TYPE": "U", "NORAD_CAT_ID": 30322, "ELEMENT_SET_NO": 999, "REV_AT_EPOCH": 96134, "BSTAR": 0.0018912604, "MEAN_MOTION_DOT": 3.298e-05, "MEAN_MOTION_DDOT": 0}, "tle": {"line1": "1 30322U 99025AAK 25342.07486435  .00003298  00000+0  18913-2 0  9993", "line2": "2 30322  98.3974 200.0985 0126909 266.4851  92.1797 14.06065197961342"}}, "geometry": {"type": "Point", "coordinates": [-161.75691945902415, 15.328025848231883]}}, {"type": "Feature", "properties": {"norad_id": 30325, "name": "FENGYUN 1C DEB", "group": "fengyun-1c-debris", "lat": -1.1434601239692366, "lon": 2.230923653214374, "alt_km": 866.0639018768434, "timestamp": "2025-12-08T13:49:32.068232+00:00", "meta": {"OBJECT_NAME": "FENGYUN 1C DEB", "OBJECT_ID": "1999-025AAL", "EPOCH": "2025-12-08T07:00:51.843744", "MEAN_MOTION": 14.09101838, "ECCENTRICITY": 0.00151932, "INCLINATION": 98.7333, "RA_OF_ASC_NODE": 1.7801, "ARG_OF_PERICENTER": 266.7018, "MEAN_ANOMALY": 93.2414, "EPHEMERIS_TYPE": 0, "CLASSIFICATION_TYPE": "U", "NORAD_CAT_ID": 30325, "ELEMENT_SET_NO": 999, "REV_AT_EPOCH": 96953, "BSTAR": 0.00016016163, "MEAN_MOTION_DOT": 2.35e-06, "MEAN_MOTION_DDOT": 0}, "tle": {"line1": "1 30325U 99025AAL 25342.29226671  .00000235  00000+0  16016-3 0  9995", "line2": "2 30325  98.7333   1.7801 0015193 266.7018  93.2414 14.09101838969534"}}, "geometry": {"type": "Point", "coordinates": [2.230923653214374, -1.1434601239692366]}}, {"type": "Feature", "properties": {"norad_id": 30326, "name": "FENGYUN 1C DEB", "group": "fengyun-1c-debris", "lat": -79.58636873666048, "lon": -73.82416715676217, "alt_km": 1012.2825366745601, "timestamp": "2025-12-08T13:49:32.068242+00:00", "meta": {"OBJECT_NAME": "FENGYUN 1C DEB", "OBJECT_ID": "1999-025AAM", "EPOCH": "2025-12-08T03:49:51.873888", "MEAN_MOTION": 13.85471575, "ECCENTRICITY": 0.01425069, "INCLINATION": 98.6543, "RA_OF_ASC_NODE": 229.8255, "ARG_OF_PERICENTER": 42.9845, "MEAN_ANOMALY": 318.2343, "EPHEMERIS_TYPE": 0, "CLASSIFICATION_TYPE": "U", "NORAD_CAT_ID": 30326, "ELEMENT_SET_NO": 999, "REV_AT_EPOCH": 95392, "BSTAR": 0.00028827059, "MEAN_MOTION_DOT": 3.17e-06, "MEAN_MOTION_DDOT": 0}, "tle": {"line1": "1 30326U 99025AAM 25342.15962817  .00000317  00000+0  28827-3 0  9994", "line2": "2 30326  98.6543 229.8255 0142506  42.9845 318.2343 13.85471575953922"}}, "geometry": {"type": "Point", "coordinates": [-73.82416715676217, -79.58636873666048]}}, {"type": "Feature", "properties": {"norad_id": 30327, "name": "FENGYUN 1C DEB", "group": "fengyun-1c-debris", "lat": 20.94659478132148, "lon": -126.1725041919456, "alt_km": 889.9076494039236, "timestamp": "2025-12-08T13:49:32.068253+00:00", "meta": {"OBJECT_NAME": "FENGYUN 1C DEB", "OBJECT_ID": "1999-025AAN", "EPOCH": "2025-12-07T04:33:58.413024", "MEAN_MOTION": 14.17928233, "ECCENTRICITY": 0.01166449, "INCLINATION": 98.4436, "RA_OF_ASC_NODE": 235.7689, "ARG_OF_PERICENTER": 159.13, "MEAN_ANOMALY": 353.1991, "EPHEMERIS_TYPE": 0, "CLASSIFICATION_TYPE": "U", "NORAD_CAT_ID": 30327, "ELEMENT_SET_NO": 999, "REV_AT_EPOCH": 96364, "BSTAR": 0.0025097225, "MEAN_MOTION_DOT": 5.452e-05, "MEAN_MOTION_DDOT": 0}, "tle": {"line1": "1 30327U 99025AAN 25341.19025941  .00005452  00000+0  25097-2 0  9996", "line2": "2 30327  98.4436 235.7689 0116644 159.1300 353.1991 14.17928233963641"}}, "geometry": {"type": "Point", "coordinates": [-126.1725041919456, 20.94659478132148]}}, {"type": "Feature", "properties": {"norad_id": 30328, "name": "FENGYUN 1C DEB", "group": "fengyun-1c-debris", "lat": -76.6319548730928, "lon": 132.7855735069968, "alt_km": 858.6813866673838, "timestamp": "2025-12-08T13:49:32.068264+00:00", "meta": {"OBJECT_NAME": "FENGYUN 1C DEB", "OBJECT_ID": "1999-025AAP", "EPOCH": "2025-12-08T07:34:31.059264", "MEAN_MOTION": 14.12470528, "ECCENTRICITY": 0.00055493, "INCLINATION": 98.6865, "RA_OF_ASC_NODE": 352.5716, "ARG_OF_PERICENTER": 164.1329, "MEAN_ANOMALY": 212.076, "EPHEMERIS_TYPE": 0, "CLASSIFICATION_TYPE": "U", "NORAD_CAT_ID": 30328, "ELEMENT_SET_NO": 999, "REV_AT_EPOCH": 97202, "BSTAR": 0.00024523668, "MEAN_MOTION_DOT": 4.1e-06, "MEAN_MOTION_DDOT": 0}, "tle": {"line1": "1 30328U 99025AAP 25342.31563726  .00000410  00000+0  24524-3 0  9994", "line2": "2 30328  98.6865 352.5716 0005549 164.1329 212.0760 14.12470528972020"}}, "geometry": {"type": "Point", "coordinates": [132.7855735069968, -76.6319548730928]}}, {"type": "Feature", "properties": {"norad_id": 30329, "name": "FENGYUN 1C DEB", "group": "fengyun-1c-debris", "lat": -23.65744399522, "lon": -93.91109811177448, "alt_km": 909.370517157573, "timestamp": "2025-12-08T13:49:32.068314+00:00", "meta": {"OBJECT_NAME": "FENGYUN 1C DEB", "OBJECT_ID": "1999-025AAQ", "EPOCH": "2025-12-08T07:35:12.234912", "MEAN_MOTION": 13.86734058, "ECCENTRICITY": 0.01423682, "INCLINATION": 99.2617, "RA_OF_ASC_NODE": 261.7324, "ARG_OF_PERICENTER": 47.3175, "MEAN_ANOMALY": 73.2897, "EPHEMERIS_TYPE": 0, "CLASSIFICATION_TYPE": "U", "NORAD_CAT_ID": 30329, "ELEMENT_SET_NO": 999, "REV_AT_EPOCH": 95349, "BSTAR": 0.00075413632, "MEAN_MOTION_DOT": 9.08e-06, "MEAN_MOTION_DDOT": 0}, "tle": {"line1": "1 30329U 99025AAQ 25342.31611383  .00000908  00000+0  75414-3 0  9994", "line2": "2 30329  99.2617 261.7324 0142368  47.3175  73.2897 13.86734058953490"}}, "geometry": {"type": "Point", "coordinates": [-93.91109811177448, -23.65744399522]}}, {"type": "Feature", "properties": {"norad_id": 30330, "name": "FENGYUN 1C DEB", "group": "fengyun-1c-debris", "lat": 77.43502345324649, "lon": -69.40912653010163, "alt_km": 1005.2137402817752, "timestamp": "2025-12-08T13:49:32.068326+00:00", "meta": {"OBJECT_NAME": "FENGYUN 1C DEB", "OBJECT_ID": "1999-025AAR", "EPOCH": "2025-12-07T22:06:47.709792", "MEAN_MOTION": 13.82038514, "ECCENTRICITY": 0.01875489, "INCLINATION": 98.8857, "RA_OF_ASC_NODE": 334.5508, "ARG_OF_PERICENTER": 197.7948, "MEAN_ANOMALY": 229.7708, "EPHEMERIS_TYPE": 0, "CLASSIFICATION_TYPE": "U", "NORAD_CAT_ID": 30330, "ELEMENT_SET_NO": 999, "REV_AT_EPOCH": 94591, "BSTAR": 0.0017420494, "MEAN_MOTION_DOT": 2.101e-05, "MEAN_MOTION_DDOT": 0}, "tle": {"line1": "1 30330U 99025AAR 25341.92138553  .00002101  00000+0  17420-2 0  9994", "line2": "2 30330  98.8857 334.5508 0187548 197.7948 229.7708 13.82038514945910"}}, "geometry": {"type": "Point", "coordinates": [-69.40912653010163, 77.43502345324649]}}, {"type": "Feature", "properties": {"norad_id": 30331, "name": "FENGYUN 1C DEB", "group": "fengyun-1c-debris", "lat": 74.50616038260198, "lon": -17.422947166818478, "alt_km": 856.2831972703352, "timestamp": "2025-12-08T13:49:32.068337+00:00", "meta": {"OBJECT_NAME": "FENGYUN 1C DEB", "OBJECT_ID": "1999-025AAS", "EPOCH": "2025-12-08T01:41:43.811808", "MEAN_MOTION": 13.97821781, "ECCENTRICITY": 0.00966899, "INCLINATION": 98.9573, "RA_OF_ASC_NODE": 16.7613, "ARG_OF_PERICENTER": 20.8527, "MEAN_ANOMALY": 33.5862, "EPHEMERIS_TYPE": 0, "CLASSIFICATION_TYPE": "U", "NORAD_CAT_ID": 30331, "ELEMENT_SET_NO": 999, "REV_AT_EPOCH": 96054, "BSTAR": 0.00055064868, "MEAN_MOTION_DOT": 7.68e-06, "MEAN_MOTION_DDOT": 0}, "tle": {"line1": "1 30331U 99025AAS 25342.07064597  .00000768  00000+0  55065-3 0  9993", "line2": "2 30331  98.9573  16.7613 0096689  20.8527  33.5862 13.97821781960547"}}, "geometry": {"type": "Point", "coordinates": [-17.422947166818478, 74.50616038260198]}}]}